[
    {
        "Altitude(m)": 553957.6763480646,
        "Argument of Periapsis(deg)": 0.019868973332140504,
        "Eccentricity": 0.0,
        "Inclination(deg)": 53.0,
        "Latitude(deg)": 2.3485890486569385,
        "Longitude(deg)": 39.38096437547571,
        "Mean Anomaly(deg)": 3.0020786027327855,
        "RAAN(deg)": 139.97043010558406,
        "Satellite Name": "Starlink Shell 1 636",
        "Satellite Number": 636,
        "Semi-Major Axis(m)": 6931778.249405717,
        "Time(s)": 570
    },
    {
        "Altitude(m)": 553906.8170790103,
        "Argument of Periapsis(deg)": 0.02021755181165174,
        "Eccentricity": 0.0,
        "Inclination(deg)": 53.0,
        "Latitude(deg)": 2.852274555253379,
        "Longitude(deg)": 39.717140401988566,
        "Mean Anomaly(deg)": 3.628909806289456,
        "RAAN(deg)": 139.96991133550657,
        "Satellite Name": "Starlink Shell 1 636",
        "Satellite Number": 636,
        "Semi-Major Axis(m)": 6931778.249405717,
        "Time(s)": 580
    },
    {
        "Altitude(m)": 553858.77918774,
        "Argument of Periapsis(deg)": 0.020566130291162974,
        "Eccentricity": 0.0,
        "Inclination(deg)": 53.0,
        "Latitude(deg)": 3.3558396194364595,
        "Longitude(deg)": 40.05365116220392,
        "Mean Anomaly(deg)": 4.255741009846202,
        "RAAN(deg)": 139.9693925654291,
        "Satellite Name": "Starlink Shell 1 636",
        "Satellite Number": 636,
        "Semi-Major Axis(m)": 6931778.249405717,
        "Time(s)": 590
    },
    {
        "Altitude(m)": 553813.5623200672,
        "Argument of Periapsis(deg)": 0.020914708770674213,
        "Eccentricity": 0.0,
        "Inclination(deg)": 53.0,
        "Latitude(deg)": 3.8592611026962143,
        "Longitude(deg)": 40.39055469427539,
        "Mean Anomaly(deg)": 4.882572213402948,
        "RAAN(deg)": 139.96887379535164,
        "Satellite Name": "Starlink Shell 1 636",
        "Satellite Number": 636,
        "Semi-Major Axis(m)": 6931778.249405717,
        "Time(s)": 600
    },
    {
        "Altitude(m)": 553771.164773477,
        "Argument of Periapsis(deg)": 0.021263287250185448,
        "Eccentricity": 0.0,
        "Inclination(deg)": 53.0,
        "Latitude(deg)": 4.362515784354332,
        "Longitude(deg)": 40.727909210538186,
        "Mean Anomaly(deg)": 5.509403416959644,
        "RAAN(deg)": 139.96835502527415,
        "Satellite Name": "Starlink Shell 1 636",
        "Satellite Number": 636,
        "Semi-Major Axis(m)": 6931778.249405717,
        "Time(s)": 610
    },
    {
        "Altitude(m)": 553731.5835007548,
        "Argument of Periapsis(deg)": 0.021611865729696686,
        "Eccentricity": 0.0,
        "Inclination(deg)": 53.0,
        "Latitude(deg)": 4.86558034958261,
        "Longitude(deg)": 41.065773627253805,
        "Mean Anomaly(deg)": 6.13623462051639,
        "RAAN(deg)": 139.9678362551967,
        "Satellite Name": "Starlink Shell 1 636",
        "Satellite Number": 636,
        "Semi-Major Axis(m)": 6931778.249405717,
        "Time(s)": 620
    },
    {
        "Altitude(m)": 553694.8141142661,
        "Argument of Periapsis(deg)": 0.02196044420920792,
        "Eccentricity": 0.0,
        "Inclination(deg)": 53.0,
        "Latitude(deg)": 5.3684313773291645,
        "Longitude(deg)": 41.40420641344475,
        "Mean Anomaly(deg)": 6.763065824073036,
        "RAAN(deg)": 139.96731748511922,
        "Satellite Name": "Starlink Shell 1 636",
        "Satellite Number": 636,
        "Semi-Major Axis(m)": 6931778.249405717,
        "Time(s)": 630
    },
    {
        "Altitude(m)": 553660.8508909321,
        "Argument of Periapsis(deg)": 0.02230902268871916,
        "Eccentricity": 0.0,
        "Inclination(deg)": 53.0,
        "Latitude(deg)": 5.871045328149026,
        "Longitude(deg)": 41.74326696125231,
        "Mean Anomaly(deg)": 7.389897027629808,
        "RAAN(deg)": 139.96679871504173,
        "Satellite Name": "Starlink Shell 1 636",
        "Satellite Number": 636,
        "Semi-Major Axis(m)": 6931778.249405717,
        "Time(s)": 640
    },
    {
        "Altitude(m)": 553629.6867778319,
        "Argument of Periapsis(deg)": 0.022657601168230398,
        "Eccentricity": 0.0,
        "Inclination(deg)": 53.0,
        "Latitude(deg)": 6.373398531917555,
        "Longitude(deg)": 42.083014434909664,
        "Mean Anomaly(deg)": 8.016728231186452,
        "RAAN(deg)": 139.96627994496427,
        "Satellite Name": "Starlink Shell 1 636",
        "Satellite Number": 636,
        "Semi-Major Axis(m)": 6931778.249405717,
        "Time(s)": 650
    },
    {
        "Altitude(m)": 553601.3133985187,
        "Argument of Periapsis(deg)": 0.023006179647741636,
        "Eccentricity": 0.0,
        "Inclination(deg)": 53.0,
        "Latitude(deg)": 6.875467175424197,
        "Longitude(deg)": 42.42350830076443,
        "Mean Anomaly(deg)": 8.643559434743123,
        "RAAN(deg)": 139.96576117488678,
        "Satellite Name": "Starlink Shell 1 636",
        "Satellite Number": 636,
        "Semi-Major Axis(m)": 6931778.249405717,
        "Time(s)": 660
    },
    {
        "Altitude(m)": 553575.7210599324,
        "Argument of Periapsis(deg)": 0.023354758127252868,
        "Eccentricity": 0.0,
        "Inclination(deg)": 53.0,
        "Latitude(deg)": 7.377227289829989,
        "Longitude(deg)": 42.76480885738242,
        "Mean Anomaly(deg)": 9.270390638299995,
        "RAAN(deg)": 139.9652424048093,
        "Satellite Name": "Starlink Shell 1 636",
        "Satellite Number": 636,
        "Semi-Major Axis(m)": 6931778.249405717,
        "Time(s)": 670
    },
    {
        "Altitude(m)": 553552.8987600356,
        "Argument of Periapsis(deg)": 0.023703336606764106,
        "Eccentricity": 0.0,
        "Inclination(deg)": 53.0,
        "Latitude(deg)": 7.878654737975391,
        "Longitude(deg)": 43.106976252863795,
        "Mean Anomaly(deg)": 9.897221841856641,
        "RAAN(deg)": 139.96472363473185,
        "Satellite Name": "Starlink Shell 1 636",
        "Satellite Number": 636,
        "Semi-Major Axis(m)": 6931778.249405717,
        "Time(s)": 680
    },
    {
        "Altitude(m)": 553532.8341960246,
        "Argument of Periapsis(deg)": 0.024051915086275345,
        "Eccentricity": 0.0,
        "Inclination(deg)": 53.0,
        "Latitude(deg)": 8.379725201533294,
        "Longitude(deg)": 43.450071015123164,
        "Mean Anomaly(deg)": 10.524053045413286,
        "RAAN(deg)": 139.9642048646544,
        "Satellite Name": "Starlink Shell 1 636",
        "Satellite Number": 636,
        "Semi-Major Axis(m)": 6931778.249405717,
        "Time(s)": 690
    },
    {
        "Altitude(m)": 553515.5137732591,
        "Argument of Periapsis(deg)": 0.024400493565786583,
        "Eccentricity": 0.0,
        "Inclination(deg)": 53.0,
        "Latitude(deg)": 8.880414167989587,
        "Longitude(deg)": 43.794154582260944,
        "Mean Anomaly(deg)": 11.150884248970057,
        "RAAN(deg)": 139.9636860945769,
        "Satellite Name": "Starlink Shell 1 636",
        "Satellite Number": 636,
        "Semi-Major Axis(m)": 6931778.249405717,
        "Time(s)": 700
    },
    {
        "Altitude(m)": 553500.9226147742,
        "Argument of Periapsis(deg)": 0.024749072045297815,
        "Eccentricity": 0.0,
        "Inclination(deg)": 53.0,
        "Latitude(deg)": 9.380696917439277,
        "Longitude(deg)": 44.139288320153995,
        "Mean Anomaly(deg)": 11.777715452526728,
        "RAAN(deg)": 139.9631673244994,
        "Satellite Name": "Starlink Shell 1 636",
        "Satellite Number": 636,
        "Semi-Major Axis(m)": 6931778.249405717,
        "Time(s)": 710
    },
    {
        "Altitude(m)": 553489.0445714602,
        "Argument of Periapsis(deg)": 0.025097650524809053,
        "Eccentricity": 0.0,
        "Inclination(deg)": 53.0,
        "Latitude(deg)": 9.88054850919112,
        "Longitude(deg)": 44.485534053016345,
        "Mean Anomaly(deg)": 12.404546656083474,
        "RAAN(deg)": 139.96264855442195,
        "Satellite Name": "Starlink Shell 1 636",
        "Satellite Number": 636,
        "Semi-Major Axis(m)": 6931778.249405717,
        "Time(s)": 720
    },
    {
        "Altitude(m)": 553479.8622328474,
        "Argument of Periapsis(deg)": 0.02544622900432029,
        "Eccentricity": 0.0,
        "Inclination(deg)": 53.0,
        "Latitude(deg)": 10.379943768164043,
        "Longitude(deg)": 44.83295459405158,
        "Mean Anomaly(deg)": 13.031377859640145,
        "RAAN(deg)": 139.96212978434446,
        "Satellite Name": "Starlink Shell 1 636",
        "Satellite Number": 636,
        "Semi-Major Axis(m)": 6931778.249405717,
        "Time(s)": 730
    },
    {
        "Altitude(m)": 553473.356938543,
        "Argument of Periapsis(deg)": 0.02579480748383153,
        "Eccentricity": 0.0,
        "Inclination(deg)": 53.0,
        "Latitude(deg)": 10.878857271063795,
        "Longitude(deg)": 45.18161276332669,
        "Mean Anomaly(deg)": 13.658209063196892,
        "RAAN(deg)": 139.96161101426702,
        "Satellite Name": "Starlink Shell 1 636",
        "Satellite Number": 636,
        "Semi-Major Axis(m)": 6931778.249405717,
        "Time(s)": 740
    },
    {
        "Altitude(m)": 553469.5087902468,
        "Argument of Periapsis(deg)": 0.026143385963342765,
        "Eccentricity": 0.0,
        "Inclination(deg)": 53.0,
        "Latitude(deg)": 11.377263332329518,
        "Longitude(deg)": 45.53157191860801,
        "Mean Anomaly(deg)": 14.285040266753638,
        "RAAN(deg)": 139.96109224418953,
        "Satellite Name": "Starlink Shell 1 636",
        "Satellite Number": 636,
        "Semi-Major Axis(m)": 6931778.249405717,
        "Time(s)": 750
    }
]